{
    "links": {
        "self": "http://www.neowsapp.com/rest/v1/neo/3332534?api_key=iIulBulltgU6a56xZRHN4H3l9WmuAYTsLGpBGhQ2"
    },
    "id": "3332534",
    "neo_reference_id": "3332534",
    "name": "(2006 JV26)",
    "designation": "2006 JV26",
    "nasa_jpl_url": "http://ssd.jpl.nasa.gov/sbdb.cgi?sstr=3332534",
    "absolute_magnitude_h": 25.2,
    "estimated_diameter": {
        "kilometers": {
            "estimated_diameter_min": 0.0242412481,
            "estimated_diameter_max": 0.0542050786
        },
        "meters": {
            "estimated_diameter_min": 24.2412481101,
            "estimated_diameter_max": 54.2050786336
        },
        "miles": {
            "estimated_diameter_min": 0.0150628086,
            "estimated_diameter_max": 0.0336814639
        },
        "feet": {
            "estimated_diameter_min": 79.5316564495,
            "estimated_diameter_max": 177.8381901842
        }
    },
    "is_potentially_hazardous_asteroid": false,
    "close_approach_data": [
        {
            "close_approach_date": "1946-05-16",
            "close_approach_date_full": "1946-May-16 10:14",
            "epoch_date_close_approach": -745681560000,
            "relative_velocity": {
                "kilometers_per_second": "22.243839258",
                "kilometers_per_hour": "80077.8213288256",
                "miles_per_hour": "49757.2440362361"
            },
            "miss_distance": {
                "astronomical": "0.149356108",
                "lunar": "58.099526012",
                "kilometers": "22343355.62828996",
                "miles": "13883517.400163048"
            },
            "orbiting_body": "Earth"
        },
        {
            "close_approach_date": "2006-05-09",
            "close_approach_date_full": "2006-May-09 00:03",
            "epoch_date_close_approach": 1147132980000,
            "relative_velocity": {
                "kilometers_per_second": "27.5014518305",
                "kilometers_per_hour": "99005.2265897676",
                "miles_per_hour": "61517.9975996253"
            },
            "miss_distance": {
                "astronomical": "0.0055502923",
                "lunar": "2.1590637047",
                "kilometers": "830311.905957401",
                "miles": "515931.8942820938"
            },
            "orbiting_body": "Moon"
        },
        {
            "close_approach_date": "2006-05-09",
            "close_approach_date_full": "2006-May-09 02:19",
            "epoch_date_close_approach": 1147141140000,
            "relative_velocity": {
                "kilometers_per_second": "26.682445977",
                "kilometers_per_hour": "96056.8055170337",
                "miles_per_hour": "59685.963405848"
            },
            "miss_distance": {
                "astronomical": "0.0064223229",
                "lunar": "2.4982836081",
                "kilometers": "960765.826292223",
                "miles": "596992.2015617574"
            },
            "orbiting_body": "Earth"
        }
    ],
    "orbital_data": {
        "orbit_id": "7",
        "orbit_determination_date": "2017-04-06 09:08:40",
        "first_observation_date": "2006-05-08",
        "last_observation_date": "2006-05-08",
        "data_arc_in_days": null,
        "observations_used": 67,
        "orbit_uncertainty": "8",
        "minimum_orbit_intersection": ".00560151",
        "jupiter_tisserand_invariant": "3.332",
        "epoch_osculation": "2453864.5",
        "eccentricity": ".79643340162027",
        "semi_major_axis": "2.016367920092976",
        "inclination": "3.673395329412632",
        "ascending_node_longitude": "223.1480415465725",
        "orbital_period": "1045.810735916633",
        "perihelion_distance": ".4104651585753384",
        "perihelion_argument": "114.7661162898734",
        "aphelion_distance": "3.622270681610613",
        "perihelion_time": "2453910.031971290569",
        "mean_anomaly": "344.3265046899351",
        "mean_motion": ".3442305453906696",
        "equinox": "J2000",
        "orbit_class": {
            "orbit_class_type": "APO",
            "orbit_class_description": "Near-Earth asteroid orbits which cross the Earth’s orbit similar to that of 1862 Apollo",
            "orbit_class_range": "a (semi-major axis) > 1.0 AU; q (perihelion) < 1.017 AU"
        }
    },
    "is_sentry_object": false
}